NAYIF-1 (EO-88)         
1 42017U 17008BX  23100.15633011  .00106320  00000+0  13392-2 0  9997
2 42017  97.2189 169.4994 0003896 226.4107 133.6827 15.59263986342803
ZHUHAI-1 02 (CAS-4B)    
1 42759U 17034B   23100.24756652  .00010130  00000+0  52671-3 0  9993
2 42759  43.0158 133.0218 0010247  15.7679  72.6912 15.16125559321325
ZHUHAI-1 01 (CAS-4A)    
1 42761U 17034D   23100.33562604  .00010120  00000+0  52534-3 0  9995
2 42761  43.0156 131.0837 0011016  18.4065  94.8458 15.16177701321344
MAX VALIER SAT          
1 42778U 17036P   23099.88510248  .00021348  00000+0  61753-3 0  9996
2 42778  97.1655 136.4590 0007626   2.6843 357.4441 15.35602093322239
RADFXSAT (FOX-1B)       
1 43017U 17073E   23099.68760792  .00007918  00000+0  56549-3 0  9997
2 43017  97.6389 346.7432 0235039 295.5143  62.1933 14.85137048291017
FOX-1D (AO-92)          
1 43137U 18004AC  23099.74852358  .00032093  00000+0  77274-3 0  9992
2 43137  97.3320 178.4295 0005624  39.6595 320.5063 15.41195631291742
DIWATA-2B               
1 43678U 18084H   23100.31112084  .00002566  00000+0  25134-3 0  9991
2 43678  98.0092 242.9649 0010221  32.5418 327.6380 14.93163056242132
ES'HAIL 2               
1 43700U 18090A   23099.91368767  .00000151  00000+0  00000+0 0  9997
2 43700   0.0167 212.8004 0001328 194.1663 145.6357  1.00269960 16002
FOX-1CLIFF (AO-95)      
1 43770U 18099N   23100.15984728  .00005523  00000+0  45900-3 0  9993
2 43770  97.5772 163.5423 0012916   0.4606 359.6627 14.99059782237418
ITASAT 1                
1 43786U 18099AE  23100.14945488  .00004176  00000+0  34999-3 0  9998
2 43786  97.5823 164.5673 0014254 357.4739   2.6410 14.98856927237453
JY1SAT (JO-97)          
1 43803U 18099AX  23100.35927956  .00006120  00000+0  49620-3 0  9999
2 43803  97.5753 164.7049 0013019 344.0891  15.9921 14.99968181237522
UWE-4                   
1 43880U 18111E   23099.72916966  .00007014  00000+0  54803-3 0  9998
2 43880  97.6434   5.9965 0018186  50.8550 309.4287 15.01276290232091
NEXUS (FO-99)           
1 43937U 19003F   23100.35157839  .00051239  00000+0  10539-2 0  9995
2 43937  97.0960 128.7081 0016439 157.4264 202.7713 15.45657325235542
JAISAT-1                
1 44419U 19038F   23099.69138445  .00023344  00000+0  88372-3 0  9992
2 44419  97.6720  79.3204 0015974 171.8197 188.3304 15.26813890208077
DUCHIFAT-3              
1 44854U 19089C   23100.25079038  .00009836  00000+0  68311-3 0  9999
2 44854  36.9637 136.9589 0007618 127.0989 317.3147 15.05052419182593
CAS-6 (TIANQIN 1)       
1 44881U 19093C   23100.39486129  .00001454  00000+0  18810-3 0  9999
2 44881  97.8634 180.0012 0013605 302.3806  57.6094 14.82358212178758
RS-44 & BREEZE-KM R/B   
1 44909U 19096E   23099.73530181  .00000039  00000+0  11515-3 0  9999
2 44909  82.5256  33.4239 0217353 347.3407  12.2285 12.79719844153404
HUSKYSAT-1 (HO-107)     
1 45119U 19071J   23100.10847207  .06255514  12121-4  10225-2 0  9994
2 45119  51.6139  10.9643 0009117 231.0791 128.9421 16.32560379179625
BY70-2                  
1 45857U 20042B   23100.21118542  .00023062  00000+0  25303-2 0  9994
2 45857  97.9275 180.0121 0010121 218.3333 141.6998 14.87662196149429
SALSAT                  
1 46495U 20068K   23099.74907406  .00005896  00000+0  39693-3 0  9994
2 46495  97.7638  47.0895 0015702 359.4982   0.6227 15.07004377138764
RADFXSAT-2 (AO-109)     
1 47311U 21002C   23099.88476829  .00026682  00000+0  77064-3 0  9996
2 47311  60.6821 320.4306 0027673 139.2075 221.1097 15.35215207123796
UVSQ-SAT                
1 47438U 21006AB  23099.91393549  .00015662  00000+0  68400-3 0  9991
2 47438  97.3915 158.0822 0008886 327.1400  32.9283 15.22169403122257
DIY-1 (ARDUIQUBE)       
1 47963U 21022AH  23100.14761519  .00117530  00000+0  29250-2 0  9992
2 47963  97.5043   6.0427 0011413 154.2770 205.9045 15.39748889112050
XW-3 (CAS-9)            
1 50466U 21131B   23100.36939255  .00000921  00000+0  31400-3 0  9999
2 50466  98.5528 182.1284 0003857 359.7956   0.3229 14.38814656 67604
TEVEL-3                 
1 50988U 22002E   23100.29141796  .00022310  00000+0  96836-3 0  9993
2 50988  97.4399 167.8336 0009940 114.5985 313.8573 15.22296252 68428
TEVEL-8                 
1 50989U 22002F   23100.43680850  .00022218  00000+0  96590-3 0  9993
2 50989  97.4418 168.0300 0010065 112.3940 305.0434 15.22241805 68447
TEVEL-5                 
1 50998U 22002Q   23100.27131249  .00023240  00000+0  98721-3 0  9992
2 50998  97.4386 168.1230 0010821 109.5222 323.9233 15.23012067 68448
TEVEL-6                 
1 50999U 22002R   23100.46400645  .00023112  00000+0  98140-3 0  9996
2 50999  97.4387 168.3103 0010969 110.0304 307.0606 15.23024898 68477
TEVEL-1                 
1 51013U 22002AF  23100.23511147  .00022435  00000+0  97487-3 0  9999
2 51013  97.4398 167.7304 0009932 115.1885 321.6548 15.22256090 68412
TEVEL-7                 
1 51062U 22002CG  23100.24396139  .00022511  00000+0  97845-3 0  9999
2 51062  97.4409 167.8153 0010041 115.5776 316.7374 15.22245985 68411
TEVEL-4                 
1 51063U 22002CH  23100.24781138  .00022291  00000+0  97014-3 0  9990
2 51063  97.4411 167.8068 0009893 114.9206 316.4550 15.22205138 68413
TEVEL-2                 
1 51069U 22002CP  23100.29326403  .00022437  00000+0  97381-3 0  9990
2 51069  97.4397 167.8098 0009800 112.9705 315.3781 15.22298312 68426
GREENCUBE               
1 53106U 22080B   23088.05176028 -.00000003  00000+0  00000+0 0  9999
2 53106  70.1795 347.5677 0008286 204.3079 155.7190  6.42557135 16603
RS29S (SXC3-2110 CYCLO*)
1 53373U 22096D   23100.38097125  .00033740  00000+0  10062-2 0  9998
2 53373  97.4197   6.0909 0003396  74.3362  34.3699 15.34575786 37274
RS32S (SXC3-212 MONITO*)
1 53374U 22096E   23100.38562337  .00030347  00000+0  91704-3 0  9994
2 53374  97.4174   6.0629 0003295  69.4708  42.8806 15.34178970 37274
RS34S (SXC3-218 KUZBAS*)
1 53375U 22096F   23100.26961237  .00026261  00000+0  83026-3 0  9992
2 53375  97.4206   5.7881 0003142  70.3977  50.0941 15.32769722 37244
RS23S (SXC3-21 UTMN)    
1 53376U 22096G   23100.38264818  .00027204  00000+0  84817-3 0  9994
2 53376  97.4205   5.9481 0003202  69.8677  71.3035 15.33208321 37265
RS28S (SXC3-214 MIET-A*)
1 53377U 22096H   23100.38772964  .00024183  00000+0  76793-3 0  9998
2 53377  97.4199   5.9153 0003037  65.0419 358.4210 15.32646697 37267
RS26S (KAI-1)           
1 53378U 22096J   23100.43573338  .00020461  00000+0  67093-3 0  9997
2 53378  97.4214   5.8535 0002845  63.0120 355.7808 15.31650348 37262
RS19S (SXC3-219 ISOI)   
1 53381U 22096M   23100.44300162  .00025271  00000+0  78389-3 0  9999
2 53381  97.4194   6.1547 0002254 346.5749 123.7424 15.33387854 37280
RS21S (CUBESX-HSE-2)    
1 53383U 22096P   23100.56292917  .00026444  00000+0  81440-3 0  9997
2 53383  97.4202   6.3127 0002422 347.0920 134.5781 15.33607857 37309
RS30S (SXC3-217 SIREN)  
1 53384U 22096Q   23100.34676390  .00022156  00000+0  70368-3 0  9998
2 53384  97.4209   6.0019 0002311 334.2173 164.9560 15.32660260 37262
RS20S (GEOSCAN-EDELVEIS)
1 53385U 22096R   23100.54518840  .00035054  00000+0  99917-3 0  9998
2 53385  97.4186   6.6289 0002208 341.9455 141.6569 15.35993397 37359
RS33S (SXC3-215 VIZARD) 
1 53386U 22096S   23100.39231060  .00044547  00000+0  11761-2 0  9995
2 53386  97.4188   6.8167 0002457 339.9949 112.7887 15.38320257 37343
CAS-5A (FO-118)         
1 54684U 22167C   23100.30837541  .00016292  00000+0  94262-3 0  9997
2 54684  97.5505 238.4765 0014317 204.8479 214.1951 15.12243595 18419
